{
  "type": "FeatureCollection",
  "features": [
    {
      "type": "Feature",
      "properties": {
        "norad_id": 30250,
        "name": "FENGYUN 1C DEB",
        "group": "fengyun-1c-debris",
        "lat": -33.409475108697784,
        "lon": 158.45472314844105,
        "alt_km": 844.9143053801654,
        "timestamp": "2025-12-18T13:51:49.958733+00:00",
        "meta_object_name": "FENGYUN 1C DEB",
        "meta_object_id": "1999-025XK",
        "meta_epoch": "2025-12-17T23:24:28.149984",
        "meta_mean_motion": 14.01631347,
        "meta_eccentricity": 0.00683588,
        "meta_inclination": 98.7543,
        "meta_ra_of_asc_node": 343.7103,
        "meta_arg_of_pericenter": 208.5466,
        "meta_mean_anomaly": 207.4848,
        "meta_ephemeris_type": 0,
        "meta_classification_type": "U",
        "meta_norad_cat_id": 30250,
        "meta_element_set_no": 999,
        "meta_rev_at_epoch": 96565,
        "meta_bstar": 0.00026757748,
        "meta_mean_motion_dot": 3.71e-06,
        "meta_mean_motion_ddot": 0,
        "tle_line1": "1 30250U 99025XK  25351.97532581  .00000371  00000+0  26758-3 0  9992",
        "tle_line2": "2 30250  98.7543 343.7103 0068358 208.5466 207.4848 14.01631347965654"
      },
      "geometry": {
        "type": "Point",
        "coordinates": [
          158.45472314844105,
          -33.409475108697784
        ]
      }
    },
    {
      "type": "Feature",
      "properties": {
        "norad_id": 30251,
        "name": "FENGYUN 1C DEB",
        "group": "fengyun-1c-debris",
        "lat": 39.39940448416957,
        "lon": 18.642707380501932,
        "alt_km": 827.701727130242,
        "timestamp": "2025-12-18T13:51:49.958743+00:00",
        "meta_object_name": "FENGYUN 1C DEB",
        "meta_object_id": "1999-025XL",
        "meta_epoch": "2025-12-18T07:19:19.412256",
        "meta_mean_motion": 14.29317283,
        "meta_eccentricity": 0.00515852,
        "meta_inclination": 99.0488,
        "meta_ra_of_asc_node": 190.8384,
        "meta_arg_of_pericenter": 314.1097,
        "meta_mean_anomaly": 224.1172,
        "meta_ephemeris_type": 0,
        "meta_classification_type": "U",
        "meta_norad_cat_id": 30251,
        "meta_element_set_no": 999,
        "meta_rev_at_epoch": 98221,
        "meta_bstar": 0.00039460734,
        "meta_mean_motion_dot": 9.71e-06,
        "meta_mean_motion_ddot": 0,
        "tle_line1": "1 30251U 99025XL  25352.30508579  .00000971  00000+0  39461-3 0  9992",
        "tle_line2": "2 30251  99.0488 190.8384 0051585 314.1097 224.1172 14.29317283982214"
      },
      "geometry": {
        "type": "Point",
        "coordinates": [
          18.642707380501932,
          39.39940448416957
        ]
      }
    },
    {
      "type": "Feature",
      "properties": {
        "norad_id": 30252,
        "name": "FENGYUN 1C DEB",
        "group": "fengyun-1c-debris",
        "lat": -45.05506832644427,
        "lon": 16.31805111371754,
        "alt_km": 866.203263712996,
        "timestamp": "2025-12-18T13:51:49.958754+00:00",
        "meta_object_name": "FENGYUN 1C DEB",
        "meta_object_id": "1999-025XM",
        "meta_epoch": "2025-12-18T07:35:29.057856",
        "meta_mean_motion": 14.09719685,
        "meta_eccentricity": 0.00661363,
        "meta_inclination": 98.7431,
        "meta_ra_of_asc_node": 7.1947,
        "meta_arg_of_pericenter": 225.672,
        "meta_mean_anomaly": 202.2981,
        "meta_ephemeris_type": 0,
        "meta_classification_type": "U",
        "meta_norad_cat_id": 30252,
        "meta_element_set_no": 999,
        "meta_rev_at_epoch": 97044,
        "meta_bstar": 0.0003475325,
        "meta_mean_motion_dot": 5.79e-06,
        "meta_mean_motion_ddot": 0,
        "tle_line1": "1 30252U 99025XM  25352.31630854  .00000579  00000+0  34753-3 0  9999",
        "tle_line2": "2 30252  98.7431   7.1947 0066136 225.6720 202.2981 14.09719685970448"
      },
      "geometry": {
        "type": "Point",
        "coordinates": [
          16.31805111371754,
          -45.05506832644427
        ]
      }
    },
    {
      "type": "Feature",
      "properties": {
        "norad_id": 30253,
        "name": "FENGYUN 1C DEB",
        "group": "fengyun-1c-debris",
        "lat": 60.2503316640276,
        "lon": 64.51003748369399,
        "alt_km": 849.0852124063485,
        "timestamp": "2025-12-18T13:51:49.958764+00:00",
        "meta_object_name": "FENGYUN 1C DEB",
        "meta_object_id": "1999-025XN",
        "meta_epoch": "2025-12-18T05:05:15.727776",
        "meta_mean_motion": 13.73202518,
        "meta_eccentricity": 0.02210612,
        "meta_inclination": 98.7522,
        "meta_ra_of_asc_node": 79.8117,
        "meta_arg_of_pericenter": 26.5564,
        "meta_mean_anomaly": 26.7362,
        "meta_ephemeris_type": 0,
        "meta_classification_type": "U",
        "meta_norad_cat_id": 30253,
        "meta_element_set_no": 999,
        "meta_rev_at_epoch": 94089,
        "meta_bstar": 0.0016220766,
        "meta_mean_motion_dot": 1.753e-05,
        "meta_mean_motion_ddot": 0,
        "tle_line1": "1 30253U 99025XN  25352.21198759  .00001753  00000+0  16221-2 0  9996",
        "tle_line2": "2 30253  98.7522  79.8117 0221061  26.5564  26.7362 13.73202518940899"
      },
      "geometry": {
        "type": "Point",
        "coordinates": [
          64.51003748369399,
          60.2503316640276
        ]
      }
    },
    {
      "type": "Feature",
      "properties": {
        "norad_id": 30257,
        "name": "FENGYUN 1C DEB",
        "group": "fengyun-1c-debris",
        "lat": -46.43401749331731,
        "lon": 0.29669497661976496,
        "alt_km": 894.702439800938,
        "timestamp": "2025-12-18T13:51:49.958775+00:00",
        "meta_object_name": "FENGYUN 1C DEB",
        "meta_object_id": "1999-025XS",
        "meta_epoch": "2025-12-17T23:02:42.635616",
        "meta_mean_motion": 14.09726519,
        "meta_eccentricity": 0.00597105,
        "meta_inclination": 98.7495,
        "meta_ra_of_asc_node": 350.3787,
        "meta_arg_of_pericenter": 84.7392,
        "meta_mean_anomaly": 336.9216,
        "meta_ephemeris_type": 0,
        "meta_classification_type": "U",
        "meta_norad_cat_id": 30257,
        "meta_element_set_no": 999,
        "meta_rev_at_epoch": 97291,
        "meta_bstar": 0.00013251759,
        "meta_mean_motion_dot": 1.94e-06,
        "meta_mean_motion_ddot": 0,
        "tle_line1": "1 30257U 99025XS  25351.96021569  .00000194  00000+0  13252-3 0  9995",
        "tle_line2": "2 30257  98.7495 350.3787 0059710  84.7392 336.9216 14.09726519972911"
      },
      "geometry": {
        "type": "Point",
        "coordinates": [
          0.29669497661976496,
          -46.43401749331731
        ]
      }
    },
    {
      "type": "Feature",
      "properties": {
        "norad_id": 30259,
        "name": "FENGYUN 1C DEB",
        "group": "fengyun-1c-debris",
        "lat": 25.544262640643414,
        "lon": 28.77649968717989,
        "alt_km": 735.1492421227131,
        "timestamp": "2025-12-18T13:51:49.958785+00:00",
        "meta_object_name": "FENGYUN 1C DEB",
        "meta_object_id": "1999-025XU",
        "meta_epoch": "2025-12-18T03:47:19.820256",
        "meta_mean_motion": 14.51532487,
        "meta_eccentricity": 0.02419771,
        "meta_inclination": 98.7614,
        "meta_ra_of_asc_node": 204.1118,
        "meta_arg_of_pericenter": 251.8068,
        "meta_mean_anomaly": 232.6166,
        "meta_ephemeris_type": 0,
        "meta_classification_type": "U",
        "meta_norad_cat_id": 30259,
        "meta_element_set_no": 999,
        "meta_rev_at_epoch": 99553,
        "meta_bstar": 0.00036860084,
        "meta_mean_motion_dot": 2.094e-05,
        "meta_mean_motion_ddot": 0,
        "tle_line1": "1 30259U 99025XU  25352.15786829  .00002094  00000+0  36860-3 0  9997",
        "tle_line2": "2 30259  98.7614 204.1118 0241977 251.8068 232.6166 14.51532487995530"
      },
      "geometry": {
        "type": "Point",
        "coordinates": [
          28.77649968717989,
          25.544262640643414
        ]
      }
    },
    {
      "type": "Feature",
      "properties": {
        "norad_id": 30263,
        "name": "FENGYUN 1C DEB",
        "group": "fengyun-1c-debris",
        "lat": -48.690820634794505,
        "lon": 117.95085400619021,
        "alt_km": 807.315554898435,
        "timestamp": "2025-12-18T13:51:49.958796+00:00",
        "meta_object_name": "FENGYUN 1C DEB",
        "meta_object_id": "1999-025XY",
        "meta_epoch": "2025-12-18T07:30:05.609952",
        "meta_mean_motion": 14.01490613,
        "meta_eccentricity": 0.01446027,
        "meta_inclination": 98.935,
        "meta_ra_of_asc_node": 107.3788,
        "meta_arg_of_pericenter": 344.799,
        "meta_mean_anomaly": 69.9158,
        "meta_ephemeris_type": 0,
        "meta_classification_type": "U",
        "meta_norad_cat_id": 30263,
        "meta_element_set_no": 999,
        "meta_rev_at_epoch": 96103,
        "meta_bstar": 0.00080974766,
        "meta_mean_motion_dot": 1.296e-05,
        "meta_mean_motion_ddot": 0,
        "tle_line1": "1 30263U 99025XY  25352.31256493  .00001296  00000+0  80975-3 0  9998",
        "tle_line2": "2 30263  98.9350 107.3788 0144602 344.7990  69.9158 14.01490613961033"
      },
      "geometry": {
        "type": "Point",
        "coordinates": [
          117.95085400619021,
          -48.690820634794505
        ]
      }
    }
  ]
}